[{"OBJECT_NAME":"GENMAT-1","OBJECT_ID":"2023-174W","EPOCH":"2026-03-09T18:03:23.351040","MEAN_MOTION":15.32594666,"ECCENTRICITY":0.00074416,"INCLINATION":97.3728,"RA_OF_ASC_NODE":146.8236,"ARG_OF_PERICENTER":169.2515,"MEAN_ANOMALY":190.8888,"EPHEMERIS_TYPE":0,"CLASSIFICATION_TYPE":"U","NORAD_CAT_ID":58276,"ELEMENT_SET_NO":999,"REV_AT_EPOCH":12973,"BSTAR":0.00042157222,"MEAN_MOTION_DOT":0.0001321,"MEAN_MOTION_DDOT":0},{"OBJECT_NAME":"STARLINK-32204","OBJECT_ID":"2024-150B","EPOCH":"2026-03-09T23:08:29.981760","MEAN_MOTION":15.30177988,"ECCENTRICITY":9.534e-5,"INCLINATION":53.1607,"RA_OF_ASC_NODE":305.7354,"ARG_OF_PERICENTER":121.001,"MEAN_ANOMALY":239.1085,"EPHEMERIS_TYPE":0,"CLASSIFICATION_TYPE":"U","NORAD_CAT_ID":60584,"ELEMENT_SET_NO":999,"REV_AT_EPOCH":8808,"BSTAR":6.9528664e-5,"MEAN_MOTION_DOT":1.699e-5,"MEAN_MOTION_DDOT":0}]
